FENGYUN 1C DEB          
1 35142U 99025DLW 17345.89348646  .00000051  00000-0  74890-4 0  9996
2 35142  99.1628  14.8239 0109460 217.3855 272.6966 13.89118274450977
